{
  "version": 1,
  "fetchedAt": "2026-06-21T12:32:46.387Z",
  "source": "celestrak-gp",
  "counts": {
    "station": 24,
    "satellite": 520,
    "debris": 250
  },
  "objects": [
    {
      "id": "35931",
      "name": "OCEANSAT-2",
      "noradId": 35931,
      "line1": "1 35931U 09051A   26172.20275315 -.00000195  00000+0 -10732-3 0  9991",
      "line2": "2 35931  98.2323 158.6537 0015540 223.7798 136.2138 13.99663407879891",
      "category": "satellite"
    },
    {
      "id": "38012",
      "name": "PLEIADES 1A",
      "noradId": 38012,
      "line1": "1 38012U 11076F   26172.17744939  .00000050  00000+0  20682-4 0  9997",
      "line2": "2 38012  98.1971 247.2271 0001711  95.6916 348.7708 14.58532491772579",
      "category": "satellite"
    },
    {
      "id": "39019",
      "name": "PLEIADES 1B",
      "noradId": 39019,
      "line1": "1 39019U 12068A   26172.19562464  .00000103  00000+0  31999-4 0  9992",
      "line2": "2 39019  98.1941 247.1924 0001670  91.6802 268.4588 14.58562370721434",
      "category": "satellite"
    },
    {
      "id": "41787",
      "name": "PATHFINDER 1",
      "noradId": 41787,
      "line1": "1 41787U 16059E   26170.93178020  .00000403  00000+0  78648-4 0  9997",
      "line2": "2 41787  97.8166 170.0842 0028007 194.6747 165.3648 14.67665593520117",
      "category": "satellite"
    },
    {
      "id": "48268",
      "name": "PLEIADES NEO 3",
      "noradId": 48268,
      "line1": "1 48268U 21034A   26172.17003076  .00001010  00000+0  13490-3 0  9991",
      "line2": "2 48268  97.8926 246.8795 0001361  92.8090 267.3278 14.81672808278244",
      "category": "satellite"
    },
    {
      "id": "59065",
      "name": "PARS 1",
      "noradId": 59065,
      "line1": "1 59065U 24039Q   26172.19864016  .00009369  00000+0  19486-3 0  9993",
      "line2": "2 59065  97.4828 153.2446 0011527  99.7581 260.4970 15.45796245129261",
      "category": "satellite"
    },
    {
      "id": "43013",
      "name": "NOAA 20 (JPSS-1)",
      "noradId": 43013,
      "line1": "1 43013U 17073A   26171.38467992  .00000046  00000+0  42637-4 0  9999",
      "line2": "2 43013  98.7771 110.8189 0000383 117.6624 242.4591 14.19512290444925",
      "category": "satellite"
    },
    {
      "id": "54234",
      "name": "NOAA 21 (JPSS-2)",
      "noradId": 54234,
      "line1": "1 54234U 22150A   26171.41746469  .00000044  00000+0  41590-4 0  9996",
      "line2": "2 54234  98.7059 110.1525 0001836 147.2077 212.9214 14.19565986187000",
      "category": "satellite"
    }
  ]
}